{
  "type": "FeatureCollection",
  "features": [
    {
      "type": "Feature",
      "properties": {
        "norad_id": 31331,
        "name": "FENGYUN 1C DEB",
        "group": "fengyun-1c-debris",
        "lat": -37.094900941389085,
        "lon": -177.23985571071236,
        "alt_km": 863.3042229033654,
        "timestamp": "2025-12-09T14:52:26.443696+00:00",
        "meta_object_name": "FENGYUN 1C DEB",
        "meta_object_id": "1999-025BQK",
        "meta_epoch": "2025-12-08T06:58:42.906432",
        "meta_mean_motion": 14.00614484,
        "meta_eccentricity": 0.00531098,
        "meta_inclination": 98.8721,
        "meta_ra_of_asc_node": 8.253,
        "meta_arg_of_pericenter": 194.8926,
        "meta_mean_anomaly": 165.0678,
        "meta_ephemeris_type": 0,
        "meta_classification_type": "U",
        "meta_norad_cat_id": 31331,
        "meta_element_set_no": 999,
        "meta_rev_at_epoch": 63794,
        "meta_bstar": 0.00047405345,
        "meta_mean_motion_dot": 6.71e-06,
        "meta_mean_motion_ddot": 0,
        "tle_line1": "1 31331U 99025BQK 25342.29077438  .00000671  00000+0  47405-3 0  9998",
        "tle_line2": "2 31331  98.8721   8.2530 0053109 194.8926 165.0678 14.00614484637947"
      },
      "geometry": {
        "type": "Point",
        "coordinates": [
          -177.23985571071236,
          -37.094900941389085
        ]
      }
    },
    {
      "type": "Feature",
      "properties": {
        "norad_id": 31332,
        "name": "FENGYUN 1C DEB",
        "group": "fengyun-1c-debris",
        "lat": -81.24947646531555,
        "lon": 89.46556334640495,
        "alt_km": 881.0186529177308,
        "timestamp": "2025-12-09T14:52:26.443706+00:00",
        "meta_object_name": "FENGYUN 1C DEB",
        "meta_object_id": "1999-025BQL",
        "meta_epoch": "2025-12-09T00:15:33.019776",
        "meta_mean_motion": 14.11823706,
        "meta_eccentricity": 0.00500808,
        "meta_inclination": 98.7066,
        "meta_ra_of_asc_node": 353.4558,
        "meta_arg_of_pericenter": 35.7234,
        "meta_mean_anomaly": 20.6152,
        "meta_ephemeris_type": 0,
        "meta_classification_type": "U",
        "meta_norad_cat_id": 31332,
        "meta_element_set_no": 999,
        "meta_rev_at_epoch": 95919,
        "meta_bstar": 0.0011200289,
        "meta_mean_motion_dot": 2.025e-05,
        "meta_mean_motion_ddot": 0,
        "tle_line1": "1 31332U 99025BQL 25343.01079884  .00002025  00000+0  11200-2 0  9995",
        "tle_line2": "2 31332  98.7066 353.4558 0050080  35.7234  20.6152 14.11823706959192"
      },
      "geometry": {
        "type": "Point",
        "coordinates": [
          89.46556334640495,
          -81.24947646531555
        ]
      }
    },
    {
      "type": "Feature",
      "properties": {
        "norad_id": 31333,
        "name": "FENGYUN 1C DEB",
        "group": "fengyun-1c-debris",
        "lat": -41.00237812016653,
        "lon": 5.714601064350535,
        "alt_km": 793.3977402898017,
        "timestamp": "2025-12-09T14:52:26.443716+00:00",
        "meta_object_name": "FENGYUN 1C DEB",
        "meta_object_id": "1999-025BQM",
        "meta_epoch": "2025-12-08T18:51:57.616128",
        "meta_mean_motion": 14.26520674,
        "meta_eccentricity": 0.00988829,
        "meta_inclination": 98.428,
        "meta_ra_of_asc_node": 357.5063,
        "meta_arg_of_pericenter": 38.1149,
        "meta_mean_anomaly": 322.6973,
        "meta_ephemeris_type": 0,
        "meta_classification_type": "U",
        "meta_norad_cat_id": 31333,
        "meta_element_set_no": 999,
        "meta_rev_at_epoch": 96535,
        "meta_bstar": 0.0012424443,
        "meta_mean_motion_dot": 3.113e-05,
        "meta_mean_motion_ddot": 0,
        "tle_line1": "1 31333U 99025BQM 25342.78608352  .00003113  00000+0  12424-2 0  9995",
        "tle_line2": "2 31333  98.4280 357.5063 0098882  38.1149 322.6973 14.26520674965353"
      },
      "geometry": {
        "type": "Point",
        "coordinates": [
          5.714601064350535,
          -41.00237812016653
        ]
      }
    },
    {
      "type": "Feature",
      "properties": {
        "norad_id": 31336,
        "name": "FENGYUN 1C DEB",
        "group": "fengyun-1c-debris",
        "lat": -68.4642914535617,
        "lon": 61.062996469544224,
        "alt_km": 833.854351810477,
        "timestamp": "2025-12-09T14:52:26.443726+00:00",
        "meta_object_name": "FENGYUN 1C DEB",
        "meta_object_id": "1999-025BQQ",
        "meta_epoch": "2025-12-08T09:26:36.278880",
        "meta_mean_motion": 14.38687526,
        "meta_eccentricity": 0.009393,
        "meta_inclination": 98.4656,
        "meta_ra_of_asc_node": 37.6806,
        "meta_arg_of_pericenter": 131.4628,
        "meta_mean_anomaly": 290.563,
        "meta_ephemeris_type": 0,
        "meta_classification_type": "U",
        "meta_norad_cat_id": 31336,
        "meta_element_set_no": 999,
        "meta_rev_at_epoch": 97728,
        "meta_bstar": 0.00061286883,
        "meta_mean_motion_dot": 1.934e-05,
        "meta_mean_motion_ddot": 0,
        "tle_line1": "1 31336U 99025BQQ 25342.39347545  .00001934  00000+0  61287-3 0  9990",
        "tle_line2": "2 31336  98.4656  37.6806 0093930 131.4628 290.5630 14.38687526977283"
      },
      "geometry": {
        "type": "Point",
        "coordinates": [
          61.062996469544224,
          -68.4642914535617
        ]
      }
    },
    {
      "type": "Feature",
      "properties": {
        "norad_id": 31338,
        "name": "FENGYUN 1C DEB",
        "group": "fengyun-1c-debris",
        "lat": 64.62305713127968,
        "lon": 164.8017958796861,
        "alt_km": 785.1127920513854,
        "timestamp": "2025-12-09T14:52:26.443737+00:00",
        "meta_object_name": "FENGYUN 1C DEB",
        "meta_object_id": "1999-025BQS",
        "meta_epoch": "2025-12-07T06:47:02.586912",
        "meta_mean_motion": 14.20639624,
        "meta_eccentricity": 0.00714576,
        "meta_inclination": 98.7167,
        "meta_ra_of_asc_node": 181.3681,
        "meta_arg_of_pericenter": 125.2774,
        "meta_mean_anomaly": 235.5116,
        "meta_ephemeris_type": 0,
        "meta_classification_type": "U",
        "meta_norad_cat_id": 31338,
        "meta_element_set_no": 999,
        "meta_rev_at_epoch": 63580,
        "meta_bstar": 0.0039493855,
        "meta_mean_motion_dot": 8.691e-05,
        "meta_mean_motion_ddot": 0,
        "tle_line1": "1 31338U 99025BQS 25341.28266883  .00008691  00000+0  39494-2 0  9995",
        "tle_line2": "2 31338  98.7167 181.3681 0071457 125.2774 235.5116 14.20639624635800"
      },
      "geometry": {
        "type": "Point",
        "coordinates": [
          164.8017958796861,
          64.62305713127968
        ]
      }
    },
    {
      "type": "Feature",
      "properties": {
        "norad_id": 31339,
        "name": "FENGYUN 1C DEB",
        "group": "fengyun-1c-debris",
        "lat": -4.290891426879325,
        "lon": 179.71039727039144,
        "alt_km": 901.9109027239383,
        "timestamp": "2025-12-09T14:52:26.443747+00:00",
        "meta_object_name": "FENGYUN 1C DEB",
        "meta_object_id": "1999-025BQT",
        "meta_epoch": "2025-12-09T07:11:55.406112",
        "meta_mean_motion": 14.12152689,
        "meta_eccentricity": 0.007437,
        "meta_inclination": 98.7143,
        "meta_ra_of_asc_node": 0.0589,
        "meta_arg_of_pericenter": 335.0933,
        "meta_mean_anomaly": 24.6657,
        "meta_ephemeris_type": 0,
        "meta_classification_type": "U",
        "meta_norad_cat_id": 31339,
        "meta_element_set_no": 999,
        "meta_rev_at_epoch": 95629,
        "meta_bstar": 0.0014428057,
        "meta_mean_motion_dot": 2.676e-05,
        "meta_mean_motion_ddot": 0,
        "tle_line1": "1 31339U 99025BQT 25343.29994683  .00002676  00000+0  14428-2 0  9992",
        "tle_line2": "2 31339  98.7143   0.0589 0074370 335.0933  24.6657 14.12152689956292"
      },
      "geometry": {
        "type": "Point",
        "coordinates": [
          179.71039727039144,
          -4.290891426879325
        ]
      }
    },
    {
      "type": "Feature",
      "properties": {
        "norad_id": 31341,
        "name": "FENGYUN 1C DEB",
        "group": "fengyun-1c-debris",
        "lat": 79.85299557588719,
        "lon": -45.81090458560303,
        "alt_km": 707.6394904452382,
        "timestamp": "2025-12-09T14:52:26.443757+00:00",
        "meta_object_name": "FENGYUN 1C DEB",
        "meta_object_id": "1999-025BQV",
        "meta_epoch": "2025-12-09T01:33:35.200800",
        "meta_mean_motion": 14.53260394,
        "meta_eccentricity": 0.00531478,
        "meta_inclination": 99.555,
        "meta_ra_of_asc_node": 23.8022,
        "meta_arg_of_pericenter": 357.8101,
        "meta_mean_anomaly": 67.452,
        "meta_ephemeris_type": 0,
        "meta_classification_type": "U",
        "meta_norad_cat_id": 31341,
        "meta_element_set_no": 999,
        "meta_rev_at_epoch": 97565,
        "meta_bstar": 0.0014891276,
        "meta_mean_motion_dot": 6.241e-05,
        "meta_mean_motion_ddot": 0,
        "tle_line1": "1 31341U 99025BQV 25343.06499075  .00006241  00000+0  14891-2 0  9991",
        "tle_line2": "2 31341  99.5550  23.8022 0053147 357.8101  67.4520 14.53260394975652"
      },
      "geometry": {
        "type": "Point",
        "coordinates": [
          -45.81090458560303,
          79.85299557588719
        ]
      }
    }
  ]
}